NORAD_CAT_ID,OBJECT_NAME,OBJECT_TYPE,EPOCH,MEAN_MOTION,ECCENTRICITY,INCLINATION,RA_OF_ASC_NODE,ARG_OF_PERICENTER,MEAN_ANOMALY,BSTAR,MEAN_MOTION_DOT,MEAN_MOTION_DDOT,TLE_LINE0,TLE_LINE1,TLE_LINE2,SEMIMAJOR_AXIS,PERIOD,APOGEE,PERIGEE,DECAYED
55761.0,STARLINK-5611,PAYLOAD,2024-02-23 09:58:15,14.98333004,0.0002789,69.9993,303.7433,273.9893,86.0947,-5.4158e-05,-7.39e-06,0.0,0 STARLINK-5611,1 55761U 23028W   24054.41545353 -.00000739  00000-0 -54158-4 0  9992,2 55761  69.9993 303.7433 0002789 273.9893  86.0947 14.98333004 54896,6950.184,96.107,573.987,570.11,0.0
55761.0,STARLINK-5611,PAYLOAD,2024-02-23 22:47:19,14.98328472,0.0002899,69.9993,302.3967,268.9078,91.1749,5.7151e-05,5.89e-06,0.0,0 STARLINK-5611,1 55761U 23028W   24054.94953391  .00000589  00000-0  57151-4 0  9992,2 55761  69.9993 302.3967 0002899 268.9078  91.1749 14.98328472 54973,6950.198,96.107,574.077,570.048,0.0
55761.0,STARLINK-5611,PAYLOAD,2024-02-24 10:00:15,14.98333695,0.0002951,69.9987,301.2187,271.4388,88.6433,2.8044e-05,2.42e-06,0.0,0 STARLINK-5611,1 55761U 23028W   24055.41685155  .00000242  00000-0  28044-4 0  9990,2 55761  69.9987 301.2187 0002951 271.4388  88.6433 14.98333695 55043,6950.181,96.107,574.097,569.995,0.0
55761.0,STARLINK-5611,PAYLOAD,2024-02-25 10:02:16,14.98336062,0.0002972,69.9988,298.6934,270.094,89.9878,4.5365e-05,4.48e-06,0.0,0 STARLINK-5611,1 55761U 23028W   24056.41824763  .00000448  00000-0  45365-4 0  9994,2 55761  69.9988 298.6934 0002972 270.0940  89.9878 14.98336062 55199,6950.174,96.107,574.105,569.974,0.0
55761.0,STARLINK-5611,PAYLOAD,2024-02-25 22:51:20,14.98338969,0.0003005,69.9989,297.3469,270.3172,89.7643,8.5482e-05,9.27e-06,0.0,0 STARLINK-5611,1 55761U 23028W   24056.95232349  .00000927  00000-0  85482-4 0  9992,2 55761  69.9989 297.3469 0003005 270.3172  89.7643 14.98338969 55272,6950.165,96.106,574.119,569.942,0.0
55761.0,STARLINK-5611,PAYLOAD,2024-02-26 02:03:36,14.98340814,0.0002962,69.999,297.0101,270.1135,89.9685,0.00010573,1.169e-05,0.0,0 STARLINK-5611,1 55761U 23028W   24057.08584109  .00001169  00000-0  10573-3 0  9998,2 55761  69.9990 297.0101 0002962 270.1135  89.9685 14.98340814 55294,6950.159,96.106,574.083,569.966,0.0
55761.0,STARLINK-5611,PAYLOAD,2024-02-26 19:41:06,14.98327221,0.0002722,69.9994,295.1584,271.5927,88.492,-7.6841e-05,-1.01e-05,0.0,0 STARLINK-5611,1 55761U 23028W   24057.82021361 -.00001010  00000-0 -76841-4 0  9994,2 55761  69.9994 295.1584 0002722 271.5927  88.4920 14.98327221 55406,6950.201,96.107,573.958,570.175,0.0
55761.0,STARLINK-5611,PAYLOAD,2024-02-26 22:53:22,14.98326589,0.0002638,69.9996,294.8235,267.011,93.0747,-9.0028e-05,-1.167e-05,0.0,0 STARLINK-5611,1 55761U 23028W   24057.95373446 -.00001167  00000-0 -90028-4 0  9998,2 55761  69.9996 294.8235 0002638 267.0110  93.0747 14.98326589 55424,6950.203,96.107,573.902,570.235,0.0
55761.0,STARLINK-5611,PAYLOAD,2024-02-27 02:05:39,14.98287057,0.0002754,69.9992,294.4851,267.4456,92.6387,0.00051118,6.005e-05,0.0,0 STARLINK-5611,1 55761U 23028W   24058.08725884  .00006005  00000-0  51118-3 0  9990,2 55761  69.9992 294.4851 0002754 267.4456  92.6387 14.98287057 55449,6950.326,96.11,574.105,570.277,0.0
55761.0,STARLINK-5611,PAYLOAD,2024-02-27 08:30:10,14.98328313,0.0002769,69.9991,293.8119,271.8715,88.2127,-4.3144e-05,-6.08e-06,0.0,0 STARLINK-5611,1 55761U 23028W   24058.35429284 -.00000608  00000-0 -43144-4 0  9991,2 55761  69.9991 293.8119 0002769 271.8715  88.2127 14.98328313 55489,6950.198,96.107,573.988,570.139,0.0
55761.0,STARLINK-5611,PAYLOAD,2024-02-27 21:19:15,14.98332118,0.0003039,69.9983,292.4654,271.3619,88.7192,-6.7812e-06,-1.74e-06,0.0,0 STARLINK-5611,1 55761U 23028W   24058.88836856 -.00000174  00000-0 -67812-5 0  9993,2 55761  69.9983 292.4654 0003039 271.3619  88.7192 14.98332118 55562,6950.186,96.107,574.164,569.939,0.0
55761.0,STARLINK-5611,PAYLOAD,2024-02-28 00:31:30,14.98335541,0.0003051,69.9982,292.1287,270.7692,89.3117,6.0668e-06,-2.1e-07,0.0,0 STARLINK-5611,1 55761U 23028W   24059.02188559 -.00000021  00000-0  60668-5 0  9992,2 55761  69.9982 292.1287 0003051 270.7692  89.3117 14.98335541 55587,6950.176,96.107,574.161,569.92,0.0
55761.0,STARLINK-5611,PAYLOAD,2024-02-28 08:32:11,14.98334238,0.0003068,69.9979,291.2867,272.1279,87.9528,-6.9614e-06,-1.76e-06,0.0,0 STARLINK-5611,1 55761U 23028W   24059.35568599 -.00000176  00000-0 -69614-5 0  9996,2 55761  69.9979 291.2867 0003068 272.1279  87.9528 14.98334238 55630,6950.18,96.107,574.177,569.912,0.0
55761.0,STARLINK-5611,PAYLOAD,2024-02-28 19:45:08,14.98323524,0.0002932,69.9981,290.1085,273.0859,86.9965,7.9493e-05,8.55e-06,0.0,0 STARLINK-5611,1 55761U 23028W   24059.82301152  .00000855  00000-0  79493-4 0  9995,2 55761  69.9981 290.1085 0002932 273.0859  86.9965 14.98323524 55704,6950.213,96.107,574.116,570.04,0.0
55761.0,STARLINK-5611,PAYLOAD,2024-02-28 21:21:16,14.98324395,0.0002929,69.9981,289.9404,272.0839,87.9984,8.5657e-05,9.29e-06,0.0,0 STARLINK-5611,1 55761U 23028W   24059.88977102  .00000929  00000-0  85657-4 0  9996,2 55761  69.9981 289.9404 0002929 272.0839  87.9984 14.98324395 55718,6950.21,96.107,574.111,570.04,0.0
55761.0,STARLINK-5611,PAYLOAD,2024-02-29 14:58:44,14.98330514,0.0002852,69.9984,288.0891,271.4795,88.6038,1.0961e-05,3.8e-07,0.0,0 STARLINK-5611,1 55761U 23028W   24060.62413067  .00000038  00000-0  10961-4 0  9992,2 55761  69.9984 288.0891 0002852 271.4795  88.6038 14.98330514 55820,6950.191,96.107,574.038,570.074,0.0
55761.0,STARLINK-5611,PAYLOAD,2024-02-29 19:47:09,14.98330936,0.0002873,69.9985,287.5839,270.9767,89.1063,1.8889e-05,1.32e-06,0.0,0 STARLINK-5611,1 55761U 23028W   24060.82440987  .00000132  00000-0  18889-4 0  9997,2 55761  69.9985 287.5839 0002873 270.9767  89.1063 14.98330936 55858,6950.19,96.107,574.052,570.058,0.0
55761.0,STARLINK-5611,PAYLOAD,2024-02-29 21:23:17,14.9833119,0.0002887,69.9985,287.4155,270.8362,89.2467,6.6936e-06,-1.3e-07,0.0,0 STARLINK-5611,1 55761U 23028W   24060.89116999 -.00000013  00000-0  66936-5 0  9993,2 55761  69.9985 287.4155 0002887 270.8362  89.2467 14.98331190 55866,6950.189,96.107,574.061,570.048,0.0
55761.0,STARLINK-5611,PAYLOAD,2024-03-01 15:00:45,14.98329449,0.0002914,69.9986,285.5637,270.6495,89.433,4.2121e-05,4.1e-06,0.0,0 STARLINK-5611,1 55761U 23028W   24061.62552948  .00000410  00000-0  42121-4 0  9992,2 55761  69.9986 285.5637 0002914 270.6495  89.4330 14.98329449 55974,6950.195,96.107,574.085,570.034,0.0
55761.0,STARLINK-5611,PAYLOAD,2024-03-01 19:49:09,14.98330307,0.0002927,69.9987,285.0585,270.2439,89.8385,5.209e-05,5.29e-06,0.0,0 STARLINK-5611,1 55761U 23028W   24061.82580854  .00000529  00000-0  52090-4 0  9998,2 55761  69.9987 285.0585 0002927 270.2439  89.8385 14.98330307 56004,6950.192,96.107,574.091,570.023,0.0
55761.0,STARLINK-5611,PAYLOAD,2024-03-01 21:25:17,14.98332498,0.0002901,69.9986,284.8897,269.1162,90.9665,6.637e-05,6.99e-06,0.0,0 STARLINK-5611,1 55761U 23028W   24061.89256662  .00000699  00000-0  66370-4 0  9996,2 55761  69.9986 284.8897 0002901 269.1162  90.9665 14.98332498 56016,6950.185,96.107,574.066,570.034,0.0
55761.0,STARLINK-5611,PAYLOAD,2024-03-02 00:37:33,14.98332962,0.0002898,69.9985,284.5531,269.1453,90.9374,6.9227e-05,7.33e-06,0.0,0 STARLINK-5611,1 55761U 23028W   24062.02608603  .00000733  00000-0  69227-4 0  9991,2 55761  69.9985 284.5531 0002898 269.1453  90.9374 14.98332962 56030,6950.184,96.107,574.063,570.035,0.0
55761.0,STARLINK-5611,PAYLOAD,2024-03-02 21:27:18,14.9833223,0.0002892,69.9984,282.3648,269.2675,90.8153,2.0776e-05,1.55e-06,0.0,0 STARLINK-5611,1 55761U 23028W   24062.89396670  .00000155  00000-0  20776-4 0  9998,2 55761  69.9984 282.3648 0002892 269.2675  90.8153 14.98332230 56161,6950.186,96.107,574.061,570.041,0.0
55761.0,STARLINK-5611,PAYLOAD,2024-03-03 00:39:34,14.98332707,0.0002891,69.9984,282.0281,269.4439,90.6389,2.5224e-05,2.08e-06,0.0,0 STARLINK-5611,1 55761U 23028W   24063.02748608  .00000208  00000-0  25224-4 0  9998,2 55761  69.9984 282.0281 0002891 269.4439  90.6389 14.98332707 56180,6950.185,96.107,574.059,570.04,0.0
55761.0,STARLINK-5611,PAYLOAD,2024-03-03 15:04:47,14.98329898,0.0002808,69.9983,280.5123,267.6419,92.4418,-2.6806e-05,-4.13e-06,0.0,0 STARLINK-5611,1 55761U 23028W   24063.62832912 -.00000413  00000-0 -26806-4 0  9993,2 55761  69.9983 280.5123 0002808 267.6419  92.4418 14.98329898 56273,6950.193,96.107,574.01,570.107,0.0
55761.0,STARLINK-5611,PAYLOAD,2024-03-03 21:29:19,14.9833198,0.0002763,69.9983,279.8408,258.9489,101.1359,-1.8721e-06,-1.15e-06,0.0,0 STARLINK-5611,1 55761U 23028W   24063.89536717 -.00000115  00000-0 -18721-5 0  9993,2 55761  69.9983 279.8408 0002763 258.9489 101.1359 14.98331980 56312,6950.187,96.107,573.972,570.131,0.0
55761.0,STARLINK-5611,PAYLOAD,2024-03-04 00:41:35,14.98332206,0.0002759,69.9982,279.5035,259.9693,100.1154,9.8773e-07,-8.1e-07,0.0,0 STARLINK-5611,1 55761U 23028W   24064.02888645 -.00000081  00000-0  98773-6 0  9996,2 55761  69.9982 279.5035 0002759 259.9693 100.1154 14.98332206 56333,6950.186,96.107,573.969,570.134,0.0
55761.0,STARLINK-5611,PAYLOAD,2024-03-04 07:06:07,14.98333639,0.0002773,69.9981,278.8306,264.8322,95.2521,2.9098e-05,2.54e-06,0.0,0 STARLINK-5611,1 55761U 23028W   24064.29592464  .00000254  00000-0  29098-4 0  9999,2 55761  69.9981 278.8306 0002773 264.8322  95.2521 14.98333639 56372,6950.182,96.107,573.974,570.119,0.0
55761.0,STARLINK-5611,PAYLOAD,2024-03-04 19:55:11,14.98338871,0.0002947,69.9976,277.4828,269.884,90.1981,9.2109e-05,1.006e-05,0.0,0 STARLINK-5611,1 55761U 23028W   24064.82999720  .00001006  00000-0  92109-4 0  9993,2 55761  69.9976 277.4828 0002947 269.8840  90.1981 14.98338871 56459,6950.165,96.106,574.079,569.982,0.0
55761.0,STARLINK-5611,PAYLOAD,2024-03-04 21:31:19,14.98338552,0.0002955,69.9976,277.3144,270.0302,90.0519,8.7134e-05,9.47e-06,0.0,0 STARLINK-5611,1 55761U 23028W   24064.89675721  .00000947  00000-0  87134-4 0  9997,2 55761  69.9976 277.3144 0002955 270.0302  90.0519 14.98338552 56468,6950.166,96.106,574.085,569.978,0.0
